19473,-33.95057,151.21495,h,2/11/2018,8.077848118,9050,2027
19474,-33.95057,151.21495,h,2/11/2018,8.23894669,9051,2027
19475,-33.95057,151.21495,h,2/11/2018,5.737931434,9056,2043
19476,-33.95057,151.21495,h,2/11/2018,6.457149545,9057,2043
19477,-33.95057,151.21495,h,2/11/2018,5.978824643,9058,2043
19478,-33.95057,151.21495,h,2/11/2018,10.70957991,9085,2045
19479,-33.95057,151.21495,h,2/11/2018,1.400004875,9087,2036
19480,-33.95057,151.21495,h,2/11/2018,14.3536803,9090,2111
19481,-33.95057,151.21495,h,2/11/2018,9.645713453,9091,2220
19482,-33.95057,151.21495,h,2/11/2018,10.30993412,9092,2220
19483,-33.95057,151.21495,h,2/11/2018,11.84574304,9093,2220
19484,-33.95057,151.21495,h,2/11/2018,14.03871502,9095,2232
19485,-33.95057,151.21495,h,2/11/2018,7.155234299,9108,2217
19486,-33.95057,151.21495,h,2/11/2018,7.185639222,9109,2217
19487,-33.95057,151.21495,h,2/11/2018,7.478479715,9110,2217
19488,-33.95057,151.21495,h,2/11/2018,9.761865797,9114,2040
19489,-33.95057,151.21495,h,2/11/2018,8.627869426,9115,2040
19490,-33.95057,151.21495,h,2/11/2018,9.328830298,9116,2040
19491,-33.95057,151.21495,h,2/11/2018,8.402772412,9117,2049
19492,-33.95057,151.21495,h,2/11/2018,3.430636262,9121,2036
19493,-33.95057,151.21495,h,2/11/2018,3.89168474,9124,2035
19494,-33.95057,151.21495,h,2/11/2018,4.235564959,9125,2035
19495,-33.95057,151.21495,h,2/11/2018,6.499095106,9126,2204
19496,-33.95057,151.21495,h,2/11/2018,2.362230404,9128,2020
19497,-33.95057,151.21495,h,2/11/2018,2.698014969,9129,2020
19498,-33.95057,151.21495,h,2/11/2018,11.87141215,9131,2061
19499,-33.95057,151.21495,h,2/11/2018,13.38386208,9132,2228
19500,-33.95057,151.21495,h,2/11/2018,14.39729988,9133,2228
19501,-33.95057,151.21495,h,2/11/2018,13.00425055,9136,2088
19502,-33.95057,151.21495,h,2/11/2018,14.07495223,9137,2088
19503,-33.95057,151.21495,h,2/11/2018,12.43724939,9138,2088
19504,-33.95057,151.21495,h,2/11/2018,14.7038639,9139,2088
19505,-33.95057,151.21495,h,2/11/2018,14.95617246,9142,2065
19506,-33.95057,151.21495,h,2/11/2018,14.55653936,9143,2065
19507,-33.95057,151.21495,h,2/11/2018,14.71287918,9144,2065
19508,-33.95057,151.21495,h,2/11/2018,13.37057082,9146,2089
19509,-33.95057,151.21495,h,2/11/2018,13.55281469,9147,2089
19510,-33.95057,151.21495,h,2/11/2018,6.297480848,9149,2042
19511,-33.95057,151.21495,h,2/11/2018,6.676418951,9150,2042
19512,-33.95057,151.21495,h,2/11/2018,9.446425292,9153,2026
19513,-33.95057,151.21495,h,2/11/2018,14.33108456,9166,2066
19514,-33.95057,151.21495,h,2/11/2018,13.98349677,9168,2225
19515,-33.95057,151.21495,h,2/11/2018,7.60777101,9169,2021
19516,-33.95057,151.21495,h,2/11/2018,7.623809077,9170,2021
19517,-33.95057,151.21495,h,2/11/2018,1.401594035,9173,2035
19518,-33.95057,151.21495,h,2/11/2018,2.161444796,9174,2035
19519,-33.95057,151.21495,h,2/11/2018,14.91751915,9178,2210
19520,-33.95057,151.21495,h,2/11/2018,12.09218215,9180,2222
19521,-33.95057,151.21495,h,2/11/2018,11.30615477,9181,2222
19522,-33.95057,151.21495,h,2/11/2018,8.427225292,9182,2049
19523,-33.95057,151.21495,h,2/11/2018,4.764551905,9188,2031
19524,-33.95057,151.21495,h,2/11/2018,5.855281882,9189,2031
19525,-33.95057,151.21495,h,2/11/2018,4.10428553,9190,2031
19526,-33.95057,151.21495,h,2/11/2018,6.8375778,9191,2016
19527,-33.95057,151.21495,h,2/11/2018,7.309347524,9198,2216
19528,-33.95057,151.21495,h,2/11/2018,7.434133067,9199,2216
19529,-33.95057,151.21495,h,2/11/2018,10.05512755,9200,2029
19530,-33.95057,151.21495,h,2/11/2018,14.16124885,9201,2196
19531,-33.95057,151.21495,h,2/11/2018,10.55572533,9203,2039
19532,-33.95057,151.21495,h,2/11/2018,12.19858117,9204,2046
19533,-33.95057,151.21495,h,2/11/2018,12.3538269,9205,2046
19534,-33.95057,151.21495,h,2/11/2018,8.669265745,9213,2219
19535,-33.95057,151.21495,h,2/11/2018,4.21469471,9215,2034
19536,-33.95057,151.21495,h,2/11/2018,10.22547286,9216,2221
19537,-33.95057,151.21495,h,2/11/2018,14.50148971,9222,2065
19538,-33.95057,151.21495,h,2/11/2018,5.543935897,9223,2044
19539,-33.95057,151.21495,h,2/11/2018,14.71153557,9226,2135
19540,-33.95057,151.21495,h,2/11/2018,14.17398136,9227,2135
19541,-33.95057,151.21495,h,2/11/2018,14.42380402,9228,2135
19542,-33.95057,151.21495,h,2/11/2018,7.534432224,9229,2010
19543,-33.95057,151.21495,h,2/11/2018,7.369818652,9230,2010
19544,-33.95057,151.21495,h,2/11/2018,7.112164492,9231,2010
19545,-33.95057,151.21495,h,2/11/2018,6.854999939,9232,2010
19546,-33.95057,151.21495,h,2/11/2018,6.794327749,9233,2010
19547,-33.95057,151.21495,h,2/11/2018,12.58997067,9234,2224
19548,-33.95057,151.21495,h,2/11/2018,7.63802973,9238,2007
19549,-33.95057,151.21495,h,2/11/2018,13.88165183,9251,2065
19550,-33.95057,151.21495,h,2/11/2018,7.236563034,9252,2025
19551,-33.95057,151.21495,h,2/11/2018,13.20773494,9253,2110
19552,-33.95057,151.21495,h,2/11/2018,4.964439923,9259,2017
19553,-33.95057,151.21495,h,2/11/2018,6.121541897,9260,2015
19554,-33.95057,151.21495,h,2/11/2018,8.598380283,9261,2038
19555,-33.95057,151.21495,h,2/11/2018,8.263474155,9262,2038
19556,-33.95057,151.21495,h,2/11/2018,8.445326401,9263,2038
19557,-33.95057,151.21495,h,2/11/2018,6.472958591,9264,2205
19558,-33.95057,151.21495,h,2/11/2018,11.11893481,9269,2041
19559,-33.95057,151.21495,h,2/11/2018,10.56142967,9270,2041
19560,-33.95057,151.21495,h,2/11/2018,10.59533105,9271,2041
19561,-33.95057,151.21495,h,2/11/2018,8.804754615,9273,2207
19562,-33.95057,151.21495,h,2/11/2018,13.36499157,9280,2191
19563,-33.95057,151.21495,h,2/11/2018,12.3920502,9281,2191
19564,-33.95057,151.21495,h,2/11/2018,13.38308091,9284,2209
19565,-33.95057,151.21495,h,2/11/2018,7.822587618,9289,2026
19566,-33.95057,151.21495,h,2/11/2018,8.864144888,9290,2026
19567,-33.95057,151.21495,h,2/11/2018,9.167030738,9291,2026
19568,-33.95057,151.21495,h,2/11/2018,12.90629571,9293,2134
19569,-33.95057,151.21495,h,2/11/2018,12.95249057,9294,2134
19570,-33.95057,151.21495,h,2/11/2018,8.068526071,9296,2050
19571,-33.95057,151.21495,h,2/11/2018,8.29739852,9297,2050
19572,-33.95057,151.21495,h,2/11/2018,10.94209594,9298,2194
19573,-33.95057,151.21495,h,2/11/2018,8.850809002,9304,2218
19574,-33.95057,151.21495,h,2/11/2018,3.704785872,9313,2036
19575,-33.95057,151.21495,h,2/11/2018,2.8812575,9314,2036
19576,-33.95057,151.21495,h,2/11/2018,7.472111498,9315,2008
19577,-33.95057,151.21495,h,2/11/2018,14.6073781,9318,2137
19578,-33.95057,151.21495,h,2/11/2018,5.664761199,9319,2034
19579,-33.95057,151.21495,h,2/11/2018,14.30900253,9320,2065
19580,-33.95057,151.21495,h,2/11/2018,11.51686327,9321,2132
19581,-33.95057,151.21495,h,2/11/2018,12.0856269,9322,2132
19582,-33.95057,151.21495,h,2/11/2018,11.4609986,9323,2133
19583,-33.95057,151.21495,h,2/11/2018,9.02371686,9324,2027
19584,-33.95057,151.21495,h,2/11/2018,7.4389154,9325,2010
19585,-33.95057,151.21495,h,2/11/2018,8.367552246,9327,2028
19586,-33.95057,151.21495,h,2/11/2018,13.24170289,9328,2047
19587,-33.95057,151.21495,h,2/11/2018,8.883973451,9329,2203
19588,-33.95057,151.21495,h,2/11/2018,7.267675068,9330,2206
19589,-33.95057,151.21495,h,2/11/2018,9.222342705,9336,2011
19590,-33.95057,151.21495,h,2/11/2018,5.950299299,9347,2043
19591,-33.95057,151.21495,h,2/11/2018,6.087820519,9348,2043
19592,-33.95057,151.21495,h,2/11/2018,13.91378387,9363,2065
19593,-33.95057,151.21495,h,2/11/2018,12.80512576,9364,2065
19594,-33.95057,151.21495,h,2/11/2018,10.70957991,9367,2045
19595,-33.95057,151.21495,h,2/11/2018,14.66978653,9369,2140
19596,-33.95057,151.21495,h,2/11/2018,13.17505404,9373,2110
19597,-33.95057,151.21495,h,2/11/2018,11.55517321,9375,2208
19598,-33.95057,151.21495,h,2/11/2018,11.45767616,9376,2208
19599,-33.95057,151.21495,h,2/11/2018,11.9589725,9378,2061
19600,-33.95057,151.21495,h,2/11/2018,11.05628783,9379,2061
19601,-33.95057,151.21495,h,2/11/2018,7.411846115,9380,2217
19602,-33.95057,151.21495,h,2/11/2018,7.198988164,9381,2217
19603,-33.95057,151.21495,h,2/11/2018,7.080005221,9382,2217
19604,-33.95057,151.21495,h,2/11/2018,9.131168002,9385,2040
19605,-33.95057,151.21495,h,2/11/2018,9.046747897,9386,2040
19606,-33.95057,151.21495,h,2/11/2018,4.452583112,9392,2035
19607,-33.95057,151.21495,h,2/11/2018,6.529459205,9393,2204
19608,-33.95057,151.21495,h,2/11/2018,6.654377184,9394,2204
19609,-33.95057,151.21495,h,2/11/2018,13.40559997,9399,2228
19610,-33.95057,151.21495,h,2/11/2018,13.1880143,9400,2228
19611,-33.95057,151.21495,h,2/11/2018,12.68117074,9404,2223
19612,-33.95057,151.21495,h,2/11/2018,12.70296501,9405,2223
19613,-33.95057,151.21495,h,2/11/2018,14.6369054,9406,2088
19614,-33.95057,151.21495,h,2/11/2018,13.59924785,9408,2088
19615,-33.95057,151.21495,h,2/11/2018,12.87981327,9409,2088
19616,-33.95057,151.21495,h,2/11/2018,12.43120658,9415,2089
19617,-33.95057,151.21495,h,2/11/2018,12.60057621,9416,2089
19618,-33.95057,151.21495,h,2/11/2018,6.289147403,9418,2042
19619,-33.95057,151.21495,h,2/11/2018,6.724241633,9419,2042
19620,-33.95057,151.21495,h,2/11/2018,6.467107515,9420,2042
19621,-33.95057,151.21495,h,2/11/2018,6.579881266,9421,2042
19622,-33.95057,151.21495,h,2/11/2018,7.203528745,9422,2042
19623,-33.95057,151.21495,h,2/11/2018,12.40133166,9426,2060
19624,-33.95057,151.21495,h,2/11/2018,7.552397897,9430,2021
19625,-33.95057,151.21495,h,2/11/2018,7.780864977,9431,2021
19626,-33.95057,151.21495,h,2/11/2018,7.60777101,9432,2021
19627,-33.95057,151.21495,h,2/11/2018,14.311031,9435,2210
19628,-33.95057,151.21495,h,2/11/2018,8.560077558,9439,2049
19629,-33.95057,151.21495,h,2/11/2018,8.60897083,9440,2049
19630,-33.95057,151.21495,h,2/11/2018,8.685519861,9449,2009
19631,-33.95057,151.21495,h,2/11/2018,7.167229781,9451,2217
19632,-33.95057,151.21495,h,2/11/2018,6.038080036,9452,2031
19633,-33.95057,151.21495,h,2/11/2018,5.143926865,9453,2031
19634,-33.95057,151.21495,h,2/11/2018,5.17512143,9454,2031
19635,-33.95057,151.21495,h,2/11/2018,6.649261572,9455,2016
19636,-33.95057,151.21495,h,2/11/2018,6.562902847,9456,2216
19637,-33.95057,151.21495,h,2/11/2018,3.845631235,9457,2018
19638,-33.95057,151.21495,h,2/11/2018,13.7392438,9459,2196
19639,-33.95057,151.21495,h,2/11/2018,8.549493832,9463,2219
